IRIDIUM 106             
1 41917U 17003A   24080.92007348  .00000022  00000+0  68521-6 0  9991
2 41917  86.3923  70.4803 0002458  85.5723 274.5754 14.34217576375926
IRIDIUM 103             
1 41918U 17003B   24080.90738686  .00000075  00000+0  19856-4 0  9999
2 41918  86.3921  70.3874 0002213  98.4469 261.6977 14.34218102375943
IRIDIUM 109             
1 41919U 17003C   24080.91373192  .00000043  00000+0  83202-5 0  9990
2 41919  86.3923  70.4307 0002042  93.0127 267.1303 14.34217799375912
IRIDIUM 102             
1 41920U 17003D   24080.95178570  .00000046  00000+0  94339-5 0  9995
2 41920  86.3921  70.3556 0002073  88.6333 271.5100 14.34217697376002
IRIDIUM 105             
1 41921U 17003E   24080.92247832  .00000613  00000+0  21168-3 0  9999
2 41921  86.3988  38.7801 0002258  87.0961 273.0493 14.34229647377856
IRIDIUM 104             
1 41922U 17003F   24080.96446895  .00000228  00000+0  74369-4 0  9998
2 41922  86.3923  70.3806 0002112  93.2259 266.9178 14.34218641375997
IRIDIUM 114             
1 41923U 17003G   24080.97081592  .00000254  00000+0  83576-4 0  9998
2 41923  86.3923  70.3640 0002456  85.7328 274.4148 14.34218052375973
IRIDIUM 108             
1 41924U 17003H   24080.92933113  .00000313  00000+0  10484-3 0  9992
2 41924  86.3982  38.7076 0002438  86.1617 273.9858 14.34217382377829
